{
  "norad_id": 66925,
  "name": "STARLINK-35945",
  "history": [
    {
      "epoch": "2026-03-28T21:07:46.452864Z",
      "apogee_km": 475.86576487012735,
      "perigee_km": 474.47742161530914,
      "latitude_deg": -5.0679634889482506e-05,
      "longitude_deg": 126.1645121052828,
      "height_km": 476.036386484581,
      "semi_major_axis_km": 6853.308593242718,
      "eccentricity": 0.00010129,
      "inclination_deg": 53.1582,
      "raan_deg": 269.4026,
      "arg_perigee_deg": 87.2379,
      "mean_anomaly_deg": 272.8737,
      "mean_motion_rev_day": 15.30214561
    },
    {
      "epoch": "2026-03-29T04:58:02.531136Z",
      "apogee_km": 476.0775348112238,
      "perigee_km": 474.30115262293293,
      "latitude_deg": -1.2692128796674567e-05,
      "longitude_deg": 6.7552606796422445,
      "height_km": 476.11423027914276,
      "semi_major_axis_km": 6853.326343717078,
      "eccentricity": 0.0001296,
      "inclination_deg": 53.1588,
      "raan_deg": 267.8822,
      "arg_perigee_deg": 91.7401,
      "mean_anomaly_deg": 268.3748,
      "mean_motion_rev_day": 15.30208616
    },
    {
      "epoch": "2026-03-30T04:28:50.681280Z",
      "apogee_km": 476.4485634574876,
      "perigee_km": 473.93681812581235,
      "latitude_deg": 2.643252070285116e-05,
      "longitude_deg": 8.538104850125537,
      "height_km": 475.7933847639235,
      "semi_major_axis_km": 6853.329690791649,
      "eccentricity": 0.00018325,
      "inclination_deg": 53.1579,
      "raan_deg": 263.3313,
      "arg_perigee_deg": 76.3468,
      "mean_anomaly_deg": 283.7737,
      "mean_motion_rev_day": 15.30207495
    },
    {
      "epoch": "2026-03-30T10:45:03.447648Z",
      "apogee_km": 476.3527803530269,
      "perigee_km": 474.05115499412386,
      "latitude_deg": 3.480991198036251e-05,
      "longitude_deg": -86.98479029651232,
      "height_km": 475.95656462051926,
      "semi_major_axis_km": 6853.338967673575,
      "eccentricity": 0.00016792,
      "inclination_deg": 53.1555,
      "raan_deg": 262.1191,
      "arg_perigee_deg": 82.8901,
      "mean_anomaly_deg": 277.2291,
      "mean_motion_rev_day": 15.30204388
    },
    {
      "epoch": "2026-03-30T20:09:22.573440Z",
      "apogee_km": 475.8831713940581,
      "perigee_km": 474.5009919848635,
      "latitude_deg": 5.644685604135287e-05,
      "longitude_deg": 129.72837300869435,
      "height_km": 476.0032031377331,
      "semi_major_axis_km": 6853.3290816894605,
      "eccentricity": 0.00010084,
      "inclination_deg": 53.1572,
      "raan_deg": 260.2982,
      "arg_perigee_deg": 82.7668,
      "mean_anomaly_deg": 277.3448,
      "mean_motion_rev_day": 15.30207699
    },
    {
      "epoch": "2026-03-31T19:40:10.480800Z",
      "apogee_km": 475.82461575550406,
      "perigee_km": 474.6225363104686,
      "latitude_deg": -4.137806926967459e-05,
      "longitude_deg": 131.51123022184262,
      "height_km": 475.9077052337589,
      "semi_major_axis_km": 6853.3605760329865,
      "eccentricity": 8.77e-05,
      "inclination_deg": 53.1559,
      "raan_deg": 255.7464,
      "arg_perigee_deg": 69.1302,
      "mean_anomaly_deg": 290.9792,
      "mean_motion_rev_day": 15.30197151
    },
    {
      "epoch": "2026-04-01T20:45:00.785952Z",
      "apogee_km": 475.8609030796042,
      "perigee_km": 474.3463369025867,
      "latitude_deg": 2.2279216475527172e-05,
      "longitude_deg": 109.4195488776613,
      "height_km": 475.8830603050725,
      "semi_major_axis_km": 6853.240619991096,
      "eccentricity": 0.0001105,
      "inclination_deg": 53.1565,
      "raan_deg": 250.8943,
      "arg_perigee_deg": 80.9962,
      "mean_anomaly_deg": 279.1164,
      "mean_motion_rev_day": 15.30237327
    },
    {
      "epoch": "2026-04-02T20:15:48.603456Z",
      "apogee_km": 475.7506598242444,
      "perigee_km": 474.48623419427076,
      "latitude_deg": 1.2768845666250983e-05,
      "longitude_deg": 111.2031467421971,
      "height_km": 476.1265242858343,
      "semi_major_axis_km": 6853.255447009257,
      "eccentricity": 9.225e-05,
      "inclination_deg": 53.1579,
      "raan_deg": 246.3428,
      "arg_perigee_deg": 99.9954,
      "mean_anomaly_deg": 260.1151,
      "mean_motion_rev_day": 15.30232361
    },
    {
      "epoch": "2026-04-03T19:46:37.738560Z",
      "apogee_km": 475.94028464826715,
      "perigee_km": 474.55864193726757,
      "latitude_deg": 4.3521860304651515e-06,
      "longitude_deg": 112.98223968162524,
      "height_km": 476.10242666937415,
      "semi_major_axis_km": 6853.386463292767,
      "eccentricity": 0.0001008,
      "inclination_deg": 53.1587,
      "raan_deg": 241.7923,
      "arg_perigee_deg": 86.2381,
      "mean_anomaly_deg": 273.8735,
      "mean_motion_rev_day": 15.30188481
    },
    {
      "epoch": "2026-04-04T19:17:26.617920Z",
      "apogee_km": 475.82619028025965,
      "perigee_km": 474.5829941154343,
      "latitude_deg": 1.969125842814151e-06,
      "longitude_deg": 114.76290481035268,
      "height_km": 475.75734932473495,
      "semi_major_axis_km": 6853.341592197847,
      "eccentricity": 9.07e-05,
      "inclination_deg": 53.1592,
      "raan_deg": 237.2423,
      "arg_perigee_deg": 56.1848,
      "mean_anomaly_deg": 303.9239,
      "mean_motion_rev_day": 15.30203509
    },
    {
      "epoch": "2026-04-05T14:06:04.040928Z",
      "apogee_km": 475.90270861375757,
      "perigee_km": 474.4445982391344,
      "latitude_deg": 3.034760035985739e-05,
      "longitude_deg": -171.8072199698061,
      "height_km": 475.8662982557255,
      "semi_major_axis_km": 6853.310653426445,
      "eccentricity": 0.00010638,
      "inclination_deg": 53.1605,
      "raan_deg": 233.6006,
      "arg_perigee_deg": 73.6013,
      "mean_anomaly_deg": 286.5105,
      "mean_motion_rev_day": 15.30213871
    },
    {
      "epoch": "2026-04-05T18:48:13.482432Z",
      "apogee_km": 475.9154230120803,
      "perigee_km": 474.3985149249893,
      "latitude_deg": -2.3725167094728158e-05,
      "longitude_deg": 116.55026994426154,
      "height_km": 475.787292963597,
      "semi_major_axis_km": 6853.2939689685345,
      "eccentricity": 0.00011067,
      "inclination_deg": 53.1605,
      "raan_deg": 232.6906,
      "arg_perigee_deg": 69.2964,
      "mean_anomaly_deg": 290.8155,
      "mean_motion_rev_day": 15.30219459
    }
  ]
}